NORAD_CAT_ID,OBJECT_NAME,OBJECT_TYPE,EPOCH,MEAN_MOTION,ECCENTRICITY,INCLINATION,RA_OF_ASC_NODE,ARG_OF_PERICENTER,MEAN_ANOMALY,BSTAR,MEAN_MOTION_DOT,MEAN_MOTION_DDOT,TLE_LINE0,TLE_LINE1,TLE_LINE2,SEMIMAJOR_AXIS,PERIOD,APOGEE,PERIGEE,DECAYED
53968.0,STARLINK-4629,PAYLOAD,2023-09-15 09:29:30,15.08832354,0.000145,53.2182,332.5526,76.5005,283.6149,0.00030668,4.595e-05,0.0,0 STARLINK-4629,1 53968U 22125E   23258.39549012  .00004595  00000-0  30668-3 0  9995,2 53968  53.2182 332.5526 0001450  76.5005 283.6149 15.08832354 52574,6917.904,95.438,540.772,538.766,0.0
53968.0,STARLINK-4629,PAYLOAD,2023-09-15 12:40:16,15.08834364,0.0001423,53.2176,331.9572,70.1709,289.9437,0.00056415,8.7e-05,0.0,0 STARLINK-4629,1 53968U 22125E   23258.52797230  .00008700  00000-0  56415-3 0  9997,2 53968  53.2176 331.9572 0001423  70.1709 289.9437 15.08834364 52529,6917.898,95.438,540.747,538.778,0.0
53968.0,STARLINK-4629,PAYLOAD,2023-09-16 09:20:17,15.08867483,0.0001502,53.2167,328.0916,66.6766,293.4384,0.0010521,0.00016508,0.0,0 STARLINK-4629,1 53968U 22125E   23259.38908720  .00016508  00000-0  10521-2 0  9992,2 53968  53.2167 328.0916 0001502  66.6766 293.4384 15.08867483 52720,6917.796,95.436,540.7,538.622,0.0
53968.0,STARLINK-4629,PAYLOAD,2023-09-16 10:55:40,15.08866871,0.0001496,53.2167,327.7941,66.6691,293.4458,0.00092358,0.00014452,0.0,0 STARLINK-4629,1 53968U 22125E   23259.45532609  .00014452  00000-0  92358-3 0  9994,2 53968  53.2167 327.7941 0001496  66.6691 293.4458 15.08866871 52668,6917.798,95.436,540.698,538.628,0.0
53968.0,STARLINK-4629,PAYLOAD,2023-09-16 22:03:21,15.08862538,0.0001873,53.2162,325.7156,61.6995,298.4186,0.00067091,0.00010412,0.0,0 STARLINK-4629,1 53968U 22125E   23259.91900261  .00010412  00000-0  67091-3 0  9996,2 53968  53.2162 325.7156 0001873  61.6995 298.4186 15.08862538 52805,6917.812,95.436,540.972,538.381,0.0
53968.0,STARLINK-4629,PAYLOAD,2023-09-17 10:46:26,15.08855331,0.0001762,53.2175,323.3343,75.789,284.3298,0.00020345,2.953e-05,0.0,0 STARLINK-4629,1 53968U 22125E   23260.44892047  .00002953  00000-0  20345-3 0  9990,2 53968  53.2175 323.3343 0001762  75.7890 284.3298 15.08855331 52810,6917.834,95.437,540.917,538.48,0.0
53968.0,STARLINK-4629,PAYLOAD,2023-09-18 10:37:13,15.08850293,0.0001544,53.2175,318.8714,91.1014,269.0155,-2.8643e-05,-7.44e-06,0.0,0 STARLINK-4629,1 53968U 22125E   23261.44251557 -.00000744  00000-0 -28643-4 0  9994,2 53968  53.2175 318.8714 0001544  91.1014 269.0155 15.08850293 53038,6917.849,95.437,540.782,538.646,0.0
53968.0,STARLINK-4629,PAYLOAD,2023-09-19 13:38:45,15.08858019,0.0001588,53.2178,313.8151,102.4968,257.6202,0.00019976,2.894e-05,0.0,0 STARLINK-4629,1 53968U 22125E   23262.56858668  .00002894  00000-0  19976-3 0  9998,2 53968  53.2178 313.8151 0001588 102.4968 257.6202 15.08858019 53202,6917.825,95.436,540.789,538.592,0.0
53968.0,STARLINK-4629,PAYLOAD,2023-09-20 02:21:52,15.08828351,0.0001543,53.2176,311.4378,102.9407,257.1758,-0.00019044,-3.317e-05,0.0,0 STARLINK-4629,1 53968U 22125E   23263.09852050 -.00003317  00000-0 -19044-3 0  9995,2 53968  53.2176 311.4378 0001543 102.9407 257.1758 15.08828351 53284,6917.916,95.438,540.848,538.714,0.0
53968.0,STARLINK-4629,PAYLOAD,2023-09-20 10:18:47,15.08833555,0.0001504,53.2172,309.9516,99.6347,260.4815,-4.9717e-05,-1.079e-05,0.0,0 STARLINK-4629,1 53968U 22125E   23263.42972105 -.00001079  00000-0 -49717-4 0  9990,2 53968  53.2172 309.9516 0001504  99.6347 260.4815 15.08833555 53269,6917.9,95.438,540.806,538.725,0.0
53968.0,STARLINK-4629,PAYLOAD,2023-09-21 13:20:21,15.08839209,0.0001478,53.217,304.8965,100.2099,259.906,0.00045185,6.91e-05,0.0,0 STARLINK-4629,1 53968U 22125E   23264.55580774  .00006910  00000-0  45185-3 0  9993,2 53968  53.2170 304.8965 0001478 100.2099 259.9060 15.08839209 53438,6917.883,95.438,540.77,538.725,0.0
53968.0,STARLINK-4629,PAYLOAD,2023-09-21 19:41:54,15.08841563,0.0001414,53.2165,303.707,96.1796,263.9357,0.00040765,6.206e-05,0.0,0 STARLINK-4629,1 53968U 22125E   23264.82076793  .00006206  00000-0  40765-3 0  9991,2 53968  53.2165 303.7070 0001414  96.1796 263.9357 15.08841563 53478,6917.876,95.437,540.719,538.762,0.0
53968.0,STARLINK-4629,PAYLOAD,2023-09-22 10:00:22,15.08847009,0.0001465,53.2168,301.0311,96.2184,263.8975,0.00038283,5.811e-05,0.0,0 STARLINK-4629,1 53968U 22125E   23265.41692705  .00005811  00000-0  38283-3 0  9997,2 53968  53.2168 301.0311 0001465  96.2184 263.8975 15.08847009 53564,6917.859,95.437,540.737,538.71,0.0
53968.0,STARLINK-4629,PAYLOAD,2023-09-22 19:32:41,15.08847358,0.0001494,53.2168,299.247,95.5189,264.5974,0.00028684,4.281e-05,0.0,0 STARLINK-4629,1 53968U 22125E   23265.81436648  .00004281  00000-0  28684-3 0  9997,2 53968  53.2168 299.2470 0001494  95.5189 264.5974 15.08847358 53628,6917.858,95.437,540.756,538.689,0.0
53968.0,STARLINK-4629,PAYLOAD,2023-09-23 01:54:13,15.08847159,0.0001507,53.2167,298.0578,95.2162,264.9002,0.00023183,3.404e-05,0.0,0 STARLINK-4629,1 53968U 22125E   23266.07932582  .00003404  00000-0  23183-3 0  9999,2 53968  53.2167 298.0578 0001507  95.2162 264.9002 15.08847159 53733,6917.859,95.437,540.766,538.681,0.0
53968.0,STARLINK-4629,PAYLOAD,2023-09-23 09:51:09,15.08849929,0.0001551,53.217,296.5708,94.504,265.6129,0.00024494,3.613e-05,0.0,0 STARLINK-4629,1 53968U 22125E   23266.41052417  .00003613  00000-0  24494-3 0  9995,2 53968  53.2170 296.5708 0001551  94.5040 265.6129 15.08849929 53714,6917.85,95.437,540.788,538.642,0.0
53968.0,STARLINK-4629,PAYLOAD,2023-09-24 01:45:01,15.08842502,0.0001714,53.2173,293.5975,86.0335,274.0853,9.9748e-05,1.3e-05,0.0,0 STARLINK-4629,1 53968U 22125E   23267.07292840  .00001300  00000-0  99748-4 0  9990,2 53968  53.2173 293.5975 0001714  86.0335 274.0853 15.08842502 53880,6917.873,95.437,540.923,538.552,0.0
53968.0,STARLINK-4629,PAYLOAD,2023-09-24 11:17:19,15.08844878,0.0001624,53.2174,291.8128,87.9454,272.1724,9.3492e-05,1.2e-05,0.0,0 STARLINK-4629,1 53968U 22125E   23267.47036635  .00001200  00000-0  93492-4 0  9991,2 53968  53.2174 291.8128 0001624  87.9454 272.1724 15.08844878 53877,6917.865,95.437,540.854,538.607,0.0
53968.0,STARLINK-4629,PAYLOAD,2023-09-25 07:57:20,15.08852359,0.0001561,53.2165,287.9451,97.6709,262.4461,0.00017679,2.528e-05,0.0,0 STARLINK-4629,1 53968U 22125E   23268.33148180  .00002528  00000-0  17679-3 0  9992,2 53968  53.2165 287.9451 0001561  97.6709 262.4461 15.08852359 54079,6917.843,95.437,540.787,538.628,0.0
53968.0,STARLINK-4629,PAYLOAD,2023-09-26 01:26:34,15.08843862,0.0001546,53.2171,284.6752,98.9225,261.1942,0.00022255,3.256e-05,0.0,0 STARLINK-4629,1 53968U 22125E   23269.06012447  .00003256  00000-0  22255-3 0  9994,2 53968  53.2171 284.6752 0001546  98.9225 261.1942 15.08843862 54185,6917.869,95.437,540.803,538.664,0.0
53968.0,STARLINK-4629,PAYLOAD,2023-09-26 07:48:07,15.08848291,0.0001741,53.2172,283.486,100.576,259.5429,0.00016779,2.384e-05,0.0,0 STARLINK-4629,1 53968U 22125E   23269.32508139  .00002384  00000-0  16779-3 0  9996,2 53968  53.2172 283.4860 0001741 100.5760 259.5429 15.08848291 54153,6917.855,95.437,540.924,538.516,0.0
53968.0,STARLINK-4629,PAYLOAD,2023-09-27 01:17:21,15.08841249,0.0001899,53.2178,280.2163,102.1514,257.9691,-1.2815e-05,-4.92e-06,0.0,0 STARLINK-4629,1 53968U 22125E   23270.05372465 -.00000492  00000-0 -12815-4 0  9997,2 53968  53.2178 280.2163 0001899 102.1514 257.9691 15.08841249 54338,6917.877,95.437,541.055,538.428,0.0
53968.0,STARLINK-4629,PAYLOAD,2023-09-27 07:38:54,15.08837947,0.0001526,53.2169,279.0272,94.1083,266.0084,-3.1704e-05,-7.92e-06,0.0,0 STARLINK-4629,1 53968U 22125E   23270.31868656 -.00000792  00000-0 -31704-4 0  9999,2 53968  53.2169 279.0272 0001526  94.1083 266.0084 15.08837947 54307,6917.887,95.438,540.807,538.696,0.0
53968.0,STARLINK-4629,PAYLOAD,2023-09-28 01:08:09,15.08829907,0.0001593,53.2171,275.7563,97.7601,262.3572,-7.0181e-05,-1.404e-05,0.0,0 STARLINK-4629,1 53968U 22125E   23271.04733326 -.00001404  00000-0 -70181-4 0  9998,2 53968  53.2171 275.7563 0001593  97.7601 262.3572 15.08829907 54482,6917.911,95.438,540.878,538.674,0.0
53968.0,STARLINK-4629,PAYLOAD,2023-09-28 07:29:42,15.08831903,0.0001564,53.2179,274.5664,97.8259,262.2911,-3.8245e-05,-8.96e-06,0.0,0 STARLINK-4629,1 53968U 22125E   23271.31229785 -.00000896  00000-0 -38245-4 0  9996,2 53968  53.2179 274.5664 0001564  97.8259 262.2911 15.08831903 54459,6917.905,95.438,540.852,538.688,0.0
53968.0,STARLINK-4629,PAYLOAD,2023-09-29 00:58:56,15.08835445,0.0001463,53.2178,271.2949,94.1904,265.9255,0.00012438,1.692e-05,0.0,0 STARLINK-4629,1 53968U 22125E   23272.04093464  .00001692  00000-0  12438-3 0  9998,2 53968  53.2178 271.2949 0001463  94.1904 265.9255 15.08835445 54639,6917.894,95.438,540.771,538.747,0.0
53968.0,STARLINK-4629,PAYLOAD,2023-09-29 07:20:28,15.08842685,0.0001453,53.2173,270.105,93.7889,266.3269,0.00018336,2.632e-05,0.0,0 STARLINK-4629,1 53968U 22125E   23272.30588995  .00002632  00000-0  18336-3 0  9993,2 53968  53.2173 270.1050 0001453  93.7889 266.3269 15.08842685 54679,6917.872,95.437,540.742,538.732,0.0
53968.0,STARLINK-4629,PAYLOAD,2023-09-30 04:00:29,15.08842389,0.0001412,53.217,266.2362,90.3446,269.7708,0.0001581,2.229e-05,0.0,0 STARLINK-4629,1 53968U 22125E   23273.16701198  .00002229  00000-0  15810-3 0  9996,2 53968  53.2170 266.2362 0001412  90.3446 269.7708 15.08842389 54806,6917.873,95.437,540.715,538.761,0.0
53968.0,STARLINK-4629,PAYLOAD,2023-09-30 05:35:52,15.08843566,0.0001421,53.2172,265.9392,90.4452,269.6703,0.00016813,2.389e-05,0.0,0 STARLINK-4629,1 53968U 22125E   23273.23325126  .00002389  00000-0  16813-3 0  9998,2 53968  53.2172 265.9392 0001421  90.4452 269.6703 15.08843566 54740,6917.869,95.437,540.718,538.751,0.0
53968.0,STARLINK-4629,PAYLOAD,2023-10-01 08:37:26,15.08842822,0.0001443,53.2162,260.8835,91.5426,268.5731,2.0415e-05,3.7e-07,0.0,0 STARLINK-4629,1 53968U 22125E   23274.35933278  .00000037  00000-0  20415-4 0  9997,2 53968  53.2162 260.8835 0001443  91.5426 268.5731 15.08842822 54981,6917.872,95.437,540.735,538.739,0.0
